[{"OBJECT_NAME":"STARLINK-6326","OBJECT_ID":"2023-078W","EPOCH":"2026-03-09T22:36:03.602304","MEAN_MOTION":14.98329674,"ECCENTRICITY":0.0001755,"INCLINATION":70.0003,"RA_OF_ASC_NODE":323.7288,"ARG_OF_PERICENTER":274.6103,"MEAN_ANOMALY":85.4855,"EPHEMERIS_TYPE":0,"CLASSIFICATION_TYPE":"U","NORAD_CAT_ID":56787,"ELEMENT_SET_NO":999,"REV_AT_EPOCH":15321,"BSTAR":-3.0224546e-5,"MEAN_MOTION_DOT":-4.53e-6,"MEAN_MOTION_DDOT":0},{"OBJECT_NAME":"DEMOSAT\/FALCON 1","OBJECT_ID":"2008-048A","EPOCH":"2026-03-09T20:26:53.902464","MEAN_MOTION":14.96189084,"ECCENTRICITY":0.00103169,"INCLINATION":9.3439,"RA_OF_ASC_NODE":185.2154,"ARG_OF_PERICENTER":2.5079,"MEAN_ANOMALY":357.5172,"EPHEMERIS_TYPE":0,"CLASSIFICATION_TYPE":"U","NORAD_CAT_ID":33393,"ELEMENT_SET_NO":999,"REV_AT_EPOCH":94801,"BSTAR":0.00032870725,"MEAN_MOTION_DOT":4.521e-5,"MEAN_MOTION_DDOT":0}]
